[{"OBJECT_NAME":"STARLINK-5003","OBJECT_ID":"2022-119V","EPOCH":"2024-01-25T18:04:44.865120","MEAN_MOTION":15.08836502,"ECCENTRICITY":0.0001325,"INCLINATION":53.2161,"RA_OF_ASC_NODE":188.6768,"ARG_OF_PERICENTER":87.0282,"MEAN_ANOMALY":273.0862,"EPHEMERIS_TYPE":0,"CLASSIFICATION_TYPE":"U","NORAD_CAT_ID":53905,"ELEMENT_SET_NO":999,"REV_AT_EPOCH":7456,"BSTAR":-1.0022e-5,"MEAN_MOTION_DOT":-4.47e-6,"MEAN_MOTION_DDOT":0},{"OBJECT_NAME":"STARLINK-5054","OBJECT_ID":"2022-119W","EPOCH":"2024-01-25T13:46:30.137952","MEAN_MOTION":15.08833923,"ECCENTRICITY":0.0001274,"INCLINATION":53.2163,"RA_OF_ASC_NODE":189.6814,"ARG_OF_PERICENTER":89.6403,"MEAN_ANOMALY":270.4735,"EPHEMERIS_TYPE":0,"CLASSIFICATION_TYPE":"U","NORAD_CAT_ID":53906,"ELEMENT_SET_NO":999,"REV_AT_EPOCH":7495,"BSTAR":2.8538e-5,"MEAN_MOTION_DOT":1.66e-6,"MEAN_MOTION_DDOT":0},{"OBJECT_NAME":"STARLINK-5063","OBJECT_ID":"2022-119X","EPOCH":"2024-01-25T18:38:22.102080","MEAN_MOTION":15.07203056,"ECCENTRICITY":0.0001271,"INCLINATION":53.2157,"RA_OF_ASC_NODE":198.0893,"ARG_OF_PERICENTER":93.3752,"MEAN_ANOMALY":266.7384,"EPHEMERIS_TYPE":0,"CLASSIFICATION_TYPE":"U","NORAD_CAT_ID":53907,"ELEMENT_SET_NO":999,"REV_AT_EPOCH":7443,"BSTAR":4.4062e-5,"MEAN_MOTION_DOT":3.87e-6,"MEAN_MOTION_DDOT":0},{"OBJECT_NAME":"STARLINK-5057","OBJECT_ID":"2022-119Y","EPOCH":"2024-01-25T17:54:08.088480","MEAN_MOTION":15.0883747,"ECCENTRICITY":0.0001276,"INCLINATION":53.2156,"RA_OF_ASC_NODE":188.6307,"ARG_OF_PERICENTER":97.7857,"MEAN_ANOMALY":262.328,"EPHEMERIS_TYPE":0,"CLASSIFICATION_TYPE":"U","NORAD_CAT_ID":53908,"ELEMENT_SET_NO":999,"REV_AT_EPOCH":7456,"BSTAR":3.6237e-5,"MEAN_MOTION_DOT":2.89e-6,"MEAN_MOTION_DDOT":0},{"OBJECT_NAME":"STARLINK-4796","OBJECT_ID":"2022-119Z","EPOCH":"2024-01-25T18:10:06.299904","MEAN_MOTION":15.08796607,"ECCENTRICITY":0.0001337,"INCLINATION":53.2164,"RA_OF_ASC_NODE":188.7004,"ARG_OF_PERICENTER":96.5729,"MEAN_ANOMALY":263.5416,"EPHEMERIS_TYPE":0,"CLASSIFICATION_TYPE":"U","NORAD_CAT_ID":53909,"ELEMENT_SET_NO":999,"REV_AT_EPOCH":7456,"BSTAR":-0.00030179,"MEAN_MOTION_DOT":-5.082e-5,"MEAN_MOTION_DDOT":0},{"OBJECT_NAME":"STARLINK-5056","OBJECT_ID":"2022-119AA","EPOCH":"2024-01-25T14:32:44.915424","MEAN_MOTION":15.08842671,"ECCENTRICITY":0.0001465,"INCLINATION":53.2152,"RA_OF_ASC_NODE":189.1795,"ARG_OF_PERICENTER":87.0253,"MEAN_ANOMALY":273.0907,"EPHEMERIS_TYPE":0,"CLASSIFICATION_TYPE":"U","NORAD_CAT_ID":53910,"ELEMENT_SET_NO":999,"REV_AT_EPOCH":7496,"BSTAR":-7.3781e-6,"MEAN_MOTION_DOT":-4.05e-6,"MEAN_MOTION_DDOT":0},{"OBJECT_NAME":"STARLINK-5048","OBJECT_ID":"2022-119AB","EPOCH":"2024-01-25T16:24:03.668256","MEAN_MOTION":15.08831618,"ECCENTRICITY":0.0001308,"INCLINATION":53.2157,"RA_OF_ASC_NODE":188.9514,"ARG_OF_PERICENTER":95.5284,"MEAN_ANOMALY":264.5857,"EPHEMERIS_TYPE":0,"CLASSIFICATION_TYPE":"U","NORAD_CAT_ID":53911,"ELEMENT_SET_NO":999,"REV_AT_EPOCH":7455,"BSTAR":-3.8913e-5,"MEAN_MOTION_DOT":-9.07e-6,"MEAN_MOTION_DDOT":0},{"OBJECT_NAME":"STARLINK-5059","OBJECT_ID":"2022-119AC","EPOCH":"2024-01-25T18:20:32.116704","MEAN_MOTION":15.08837348,"ECCENTRICITY":0.0001342,"INCLINATION":53.215,"RA_OF_ASC_NODE":188.0456,"ARG_OF_PERICENTER":75.1807,"MEAN_ANOMALY":284.9334,"EPHEMERIS_TYPE":0,"CLASSIFICATION_TYPE":"U","NORAD_CAT_ID":53912,"ELEMENT_SET_NO":999,"REV_AT_EPOCH":7457,"BSTAR":7.8533e-5,"MEAN_MOTION_DOT":9.62e-6,"MEAN_MOTION_DDOT":0},{"OBJECT_NAME":"STARLINK-5053","OBJECT_ID":"2022-119AD","EPOCH":"2024-01-25T14:22:08.327136","MEAN_MOTION":15.08836531,"ECCENTRICITY":0.00015,"INCLINATION":53.2182,"RA_OF_ASC_NODE":189.1402,"ARG_OF_PERICENTER":101.4868,"MEAN_ANOMALY":258.6293,"EPHEMERIS_TYPE":0,"CLASSIFICATION_TYPE":"U","NORAD_CAT_ID":53913,"ELEMENT_SET_NO":999,"REV_AT_EPOCH":7496,"BSTAR":-7.6039e-6,"MEAN_MOTION_DOT":-4.09e-6,"MEAN_MOTION_DDOT":0},{"OBJECT_NAME":"STARLINK-5040","OBJECT_ID":"2022-119AE","EPOCH":"2024-01-25T15:52:12.993600","MEAN_MOTION":15.08839259,"ECCENTRICITY":0.0001371,"INCLINATION":53.2174,"RA_OF_ASC_NODE":188.8121,"ARG_OF_PERICENTER":99.9578,"MEAN_ANOMALY":260.1569,"EPHEMERIS_TYPE":0,"CLASSIFICATION_TYPE":"U","NORAD_CAT_ID":53914,"ELEMENT_SET_NO":999,"REV_AT_EPOCH":7455,"BSTAR":4.2398e-5,"MEAN_MOTION_DOT":3.87e-6,"MEAN_MOTION_DDOT":0},{"OBJECT_NAME":"STARLINK-5017","OBJECT_ID":"2022-119AF","EPOCH":"2024-01-25T17:48:50.117472","MEAN_MOTION":15.08833098,"ECCENTRICITY":0.0001251,"INCLINATION":53.2155,"RA_OF_ASC_NODE":188.608,"ARG_OF_PERICENTER":95.6899,"MEAN_ANOMALY":264.4236,"EPHEMERIS_TYPE":0,"CLASSIFICATION_TYPE":"U","NORAD_CAT_ID":53915,"ELEMENT_SET_NO":999,"REV_AT_EPOCH":7456,"BSTAR":-1.6157e-5,"MEAN_MOTION_DOT":-5.45e-6,"MEAN_MOTION_DDOT":0},{"OBJECT_NAME":"STARLINK-5051","OBJECT_ID":"2022-119AG","EPOCH":"2024-01-25T16:37:11.650944","MEAN_MOTION":15.08869302,"ECCENTRICITY":0.0001142,"INCLINATION":53.2168,"RA_OF_ASC_NODE":168.3865,"ARG_OF_PERICENTER":94.8339,"MEAN_ANOMALY":265.2784,"EPHEMERIS_TYPE":0,"CLASSIFICATION_TYPE":"U","NORAD_CAT_ID":53916,"ELEMENT_SET_NO":999,"REV_AT_EPOCH":7484,"BSTAR":0.0002106,"MEAN_MOTION_DOT":3.068e-5,"MEAN_MOTION_DDOT":0},{"OBJECT_NAME":"STARLINK-5036","OBJECT_ID":"2022-119AH","EPOCH":"2024-01-25T17:38:13.244064","MEAN_MOTION":15.08832134,"ECCENTRICITY":0.0001431,"INCLINATION":53.216,"RA_OF_ASC_NODE":188.5614,"ARG_OF_PERICENTER":95.4937,"MEAN_ANOMALY":264.6219,"EPHEMERIS_TYPE":0,"CLASSIFICATION_TYPE":"U","NORAD_CAT_ID":53917,"ELEMENT_SET_NO":999,"REV_AT_EPOCH":7456,"BSTAR":0.00010427,"MEAN_MOTION_DOT":1.372e-5,"MEAN_MOTION_DDOT":0},{"OBJECT_NAME":"STARLINK-5012","OBJECT_ID":"2022-119AJ","EPOCH":"2024-01-25T17:22:17.682528","MEAN_MOTION":15.08832943,"ECCENTRICITY":0.0001274,"INCLINATION":53.2158,"RA_OF_ASC_NODE":188.4987,"ARG_OF_PERICENTER":78.8024,"MEAN_ANOMALY":281.3111,"EPHEMERIS_TYPE":0,"CLASSIFICATION_TYPE":"U","NORAD_CAT_ID":53918,"ELEMENT_SET_NO":999,"REV_AT_EPOCH":7456,"BSTAR":-0.00015255,"MEAN_MOTION_DOT":-2.714e-5,"MEAN_MOTION_DDOT":0},{"OBJECT_NAME":"STARLINK-5023","OBJECT_ID":"2022-119AK","EPOCH":"2024-01-25T14:06:13.303008","MEAN_MOTION":15.08840552,"ECCENTRICITY":0.0001569,"INCLINATION":53.2171,"RA_OF_ASC_NODE":189.0742,"ARG_OF_PERICENTER":77.8851,"MEAN_ANOMALY":282.2317,"EPHEMERIS_TYPE":0,"CLASSIFICATION_TYPE":"U","NORAD_CAT_ID":53919,"ELEMENT_SET_NO":999,"REV_AT_EPOCH":7496,"BSTAR":2.9176e-5,"MEAN_MOTION_DOT":1.76e-6,"MEAN_MOTION_DDOT":0},{"OBJECT_NAME":"STARLINK-5025","OBJECT_ID":"2022-119AL","EPOCH":"2024-01-25T14:34:07.766112","MEAN_MOTION":15.08836995,"ECCENTRICITY":0.0001376,"INCLINATION":53.217,"RA_OF_ASC_NODE":189.1815,"ARG_OF_PERICENTER":88.1845,"MEAN_ANOMALY":271.9304,"EPHEMERIS_TYPE":0,"CLASSIFICATION_TYPE":"U","NORAD_CAT_ID":53920,"ELEMENT_SET_NO":999,"REV_AT_EPOCH":7496,"BSTAR":2.0197e-5,"MEAN_MOTION_DOT":3.4e-7,"MEAN_MOTION_DDOT":0},{"OBJECT_NAME":"STARLINK-5002","OBJECT_ID":"2022-119AN","EPOCH":"2024-01-24T18:45:40.659840","MEAN_MOTION":15.08836008,"ECCENTRICITY":0.0001433,"INCLINATION":53.2168,"RA_OF_ASC_NODE":192.5674,"ARG_OF_PERICENTER":101.2377,"MEAN_ANOMALY":258.8776,"EPHEMERIS_TYPE":0,"CLASSIFICATION_TYPE":"U","NORAD_CAT_ID":53922,"ELEMENT_SET_NO":999,"REV_AT_EPOCH":7484,"BSTAR":2.6311e-5,"MEAN_MOTION_DOT":1.31e-6,"MEAN_MOTION_DDOT":0},{"OBJECT_NAME":"STARLINK-5004","OBJECT_ID":"2022-119AP","EPOCH":"2024-01-24T18:56:17.116800","MEAN_MOTION":15.08840206,"ECCENTRICITY":0.0001428,"INCLINATION":53.2165,"RA_OF_ASC_NODE":192.6144,"ARG_OF_PERICENTER":78.9728,"MEAN_ANOMALY":281.1425,"EPHEMERIS_TYPE":0,"CLASSIFICATION_TYPE":"U","NORAD_CAT_ID":53923,"ELEMENT_SET_NO":999,"REV_AT_EPOCH":7484,"BSTAR":4.2362e-5,"MEAN_MOTION_DOT":3.86e-6,"MEAN_MOTION_DDOT":0},{"OBJECT_NAME":"STARLINK-5001","OBJECT_ID":"2022-119AQ","EPOCH":"2024-01-25T17:20:13.438464","MEAN_MOTION":15.08906017,"ECCENTRICITY":0.0001056,"INCLINATION":53.2163,"RA_OF_ASC_NODE":183.4964,"ARG_OF_PERICENTER":78.9943,"MEAN_ANOMALY":281.1168,"EPHEMERIS_TYPE":0,"CLASSIFICATION_TYPE":"U","NORAD_CAT_ID":53924,"ELEMENT_SET_NO":999,"REV_AT_EPOCH":7463,"BSTAR":0.00054659,"MEAN_MOTION_DOT":8.437e-5,"MEAN_MOTION_DDOT":0},{"OBJECT_NAME":"STARLINK-5011","OBJECT_ID":"2022-119AR","EPOCH":"2024-01-25T18:15:14.573376","MEAN_MOTION":15.08849477,"ECCENTRICITY":0.0001241,"INCLINATION":53.2148,"RA_OF_ASC_NODE":188.024,"ARG_OF_PERICENTER":87.0163,"MEAN_ANOMALY":273.0971,"EPHEMERIS_TYPE":0,"CLASSIFICATION_TYPE":"U","NORAD_CAT_ID":53925,"ELEMENT_SET_NO":999,"REV_AT_EPOCH":7457,"BSTAR":0.00011024,"MEAN_MOTION_DOT":1.467e-5,"MEAN_MOTION_DDOT":0},{"OBJECT_NAME":"STARLINK-5014","OBJECT_ID":"2022-119AS","EPOCH":"2024-01-25T17:04:23.559456","MEAN_MOTION":15.08837013,"ECCENTRICITY":0.000148,"INCLINATION":53.2171,"RA_OF_ASC_NODE":183.4329,"ARG_OF_PERICENTER":92.5481,"MEAN_ANOMALY":267.5681,"EPHEMERIS_TYPE":0,"CLASSIFICATION_TYPE":"U","NORAD_CAT_ID":53926,"ELEMENT_SET_NO":999,"REV_AT_EPOCH":7463,"BSTAR":3.7733e-5,"MEAN_MOTION_DOT":3.13e-6,"MEAN_MOTION_DDOT":0},{"OBJECT_NAME":"STARLINK-5008","OBJECT_ID":"2022-119AT","EPOCH":"2024-01-25T14:20:09.331872","MEAN_MOTION":15.08837445,"ECCENTRICITY":0.000146,"INCLINATION":53.2162,"RA_OF_ASC_NODE":184.1543,"ARG_OF_PERICENTER":115.8797,"MEAN_ANOMALY":244.2346,"EPHEMERIS_TYPE":0,"CLASSIFICATION_TYPE":"U","NORAD_CAT_ID":53927,"ELEMENT_SET_NO":999,"REV_AT_EPOCH":7503,"BSTAR":-6.7889e-5,"MEAN_MOTION_DOT":-1.368e-5,"MEAN_MOTION_DDOT":0},{"OBJECT_NAME":"STARLINK-5009","OBJECT_ID":"2022-119AU","EPOCH":"2024-01-25T17:18:19.410336","MEAN_MOTION":15.08837695,"ECCENTRICITY":0.0001137,"INCLINATION":53.2161,"RA_OF_ASC_NODE":178.4971,"ARG_OF_PERICENTER":87.6439,"MEAN_ANOMALY":272.4684,"EPHEMERIS_TYPE":0,"CLASSIFICATION_TYPE":"U","NORAD_CAT_ID":53928,"ELEMENT_SET_NO":999,"REV_AT_EPOCH":7470,"BSTAR":-2.5573e-5,"MEAN_MOTION_DOT":-6.95e-6,"MEAN_MOTION_DDOT":0}]
